1 61995U 16053M   25003.95689548 -.00000237  00000-0  00000-0 0  9992
2 61995   0.1841  87.5914 0053081 267.9033   4.4511  1.01041254   774
1 61995U 16053M   25004.94656717 -.00000244  00000-0  00000-0 0  9992
2 61995   0.1865  87.6330 0053114 267.9119   4.4006  1.01041037   795
1 61995U 16053M   25005.93624333 -.00000250  00000-0  00000-0 0  9998
2 61995   0.1890  87.6401 0053113 267.9339   4.3714  1.01040786   790
1 61995U 16053M   25006.92592023 -.00000254  00000-0  00000-0 0  9992
2 61995   0.1915  87.6681 0053129 267.9455   4.3315  1.01040514   802
1 61995U 16053M   25007.91559654 -.00000257  00000-0  00000-0 0  9998
2 61995   0.1939  87.7321 0053163 267.9411   4.2711  1.01040223   828
1 61995U 16053M   25007.91559692 -.00000257  00000-0  00000-0 0  9990
2 61995   0.1939  87.7104 0053161 267.9534   4.2804  1.01040227   828
1 61995U 16053M   25008.90527578 -.00000260  00000-0  00000-0 0  9992
2 61995   0.1964  87.7243 0053163 267.9695   4.2485  1.01039906   827
1 61995U 16053M   25009.89495435 -.00000262  00000-0  00000-0 0  9999
2 61995   0.1989  87.7777 0053196 267.9708   4.1910  1.01039571   849
1 61995U 16053M   25010.88463508 -.00000263  00000-0  00000-0 0  9997
2 61995   0.2014  87.8119 0053217 267.9775   4.1466  1.01039218   853
1 61995U 16053M   25011.87431843 -.00000263  00000-0  00000-0 0  9994
2 61995   0.2038  87.8424 0053233 267.9789   4.1111  1.01038857   867
1 61995U 16053M   25011.87431943 -.00000263  00000-0  00000-0 0  9995
2 61995   0.2038  87.8127 0053219 267.9990   4.1206  1.01038851   864
1 61995U 16053M   25012.86400722 -.00000260  00000-0  00000-0 0  9993
2 61995   0.2063  87.8414 0053236 268.0012   4.0863  1.01038482   865
1 61995U 16053M   25012.86400736 -.00000260  00000-0  00000-0 0  9998
2 61995   0.2063  87.8605 0053243 267.9832   4.0852  1.01038477   876
1 61995U 16053M   25013.85370262 -.00000256  00000-0  00000-0 0  9993
2 61995   0.2088  87.8775 0053261 267.9888   4.0601  1.01038089   884
1 61995U 16053M   25015.83311740 -.00000238  00000-0  00000-0 0  9999
2 61995   0.2138  87.9053 0053299 268.0001   4.0197  1.01037282   907
1 61995U 16053M   25015.83311827 -.00000238  00000-0  00000-0 0  9995
2 61995   0.2138  87.9185 0053313 267.9918   4.0148  1.01037277   905
1 61995U 16053M   25016.82283608 -.00000225  00000-0  00000-0 0  9996
2 61995   0.2163  87.9183 0053325 268.0110   3.9971  1.01036879   910
1 61995U 16053M   25017.81256028 -.00000210  00000-0  00000-0 0  9996
2 61995   0.2189  87.9360 0053346 268.0078   3.9846  1.01036492   924
1 61995U 16053M   25018.80229044 -.00000193  00000-0  00000-0 0  9994
2 61995   0.2214  87.9334 0053355 268.0340   3.9639  1.01036106   928
1 61995U 16053M   25018.80229103 -.00000193  00000-0  00000-0 0  9990
2 61995   0.2214  87.9552 0053366 268.0071   3.9689  1.01036103   936
1 61995U 16053M   25019.79202551 -.00000175  00000-0  00000-0 0  9997
2 61995   0.2240  87.9557 0053376 268.0305   3.9481  1.01035730   936
1 61995U 16053M   25019.79202598 -.00000175  00000-0  00000-0 0  9998
2 61995   0.2240  87.9699 0053385 268.0122   3.9521  1.01035729   944
1 61995U 16053M   25020.78176356 -.00000156  00000-0  00000-0 0  9990
2 61995   0.2265  87.9727 0053393 268.0314   3.9330  1.01035370   945
1 61995U 16053M   25020.78176439 -.00000156  00000-0  00000-0 0  9992
2 61995   0.2265  87.9889 0053401 268.0093   3.9389  1.01035366   958
1 61995U 16053M   25021.77150395 -.00000137  00000-0  00000-0 0  9994
2 61995   0.2291  87.9915 0053411 268.0289   3.9191  1.01035026   959
1 61995U 16053M   25021.77150406 -.00000137  00000-0  00000-0 0  9997
2 61995   0.2291  88.0088 0053417 268.0108   3.9199  1.01035030   962
1 61995U 16053M   25022.76124508 -.00000118  00000-0  00000-0 0  9990
2 61995   0.2316  88.0219 0053432 268.0199   3.8993  1.01034713   972
1 61995U 16053M   25024.74073183 -.00000082  00000-0  00000-0 0  9992
2 61995   0.2367  88.0468 0053470 268.0377   3.8575  1.01034116   988
1 61995U 16053M   25024.74073196 -.00000082  00000-0  00000-0 0  9996
2 61995   0.2367  88.0614 0053479 268.0331   3.8476  1.01034122   998
1 61995U 16053M   25025.73047420 -.00000065  00000-0  00000-0 0  9998
2 61995   0.2393  88.0752 0053505 268.0592   3.8070  1.01033885  1007
1 61995U 16053M   25025.73047473 -.00000065  00000-0  00000-0 0  9996
2 61995   0.2393  88.0616 0053496 268.0580   3.8217  1.01033874   990
1 61995U 16053M   25026.72021683 -.00000048  00000-0  00000-0 0  9992
2 61995   0.2418  88.0842 0053525 268.0901   3.7658  1.01033678  1013
1 61995U 16053M   25026.72021687 -.00000048  00000-0  00000-0 0  9996
2 61995   0.2418  88.0730 0053520 268.0862   3.7808  1.01033673  1001
1 61995U 16053M   25027.70996106 -.00000031  00000-0  00000-0 0  9994
2 61995   0.2443  88.0794 0053538 268.1217   3.7373  1.01033492  1010
1 61995U 16053M   25027.70996160 -.00000031  00000-0  00000-0 0  9994
2 61995   0.2443  88.0892 0053545 268.1288   3.7206  1.01033493  1022
1 61995U 16053M   25028.69970725 -.00000015  00000-0  00000-0 0  9994
2 61995   0.2468  88.0954 0053565 268.1727   3.6690  1.01033349  1035
1 61995U 16053M   25028.69970775 -.00000015  00000-0  00000-0 0  9999
2 61995   0.2468  88.0849 0053557 268.1639   3.6882  1.01033339  1022
1 61995U 16053M   25029.68945418  .00000002  00000-0  00000-0 0  9990
2 61995   0.2493  88.1026 0053581 268.2160   3.6175  1.01033251  1045
1 61995U 16053M   25029.68945494  .00000002  00000-0  00000-0 0  9994
2 61995   0.2493  88.0919 0053574 268.2061   3.6380  1.01033239  1030
1 61995U 16053M   25030.67920436  .00000019  00000-0  00000-0 0  9992
2 61995   0.2518  88.0998 0053591 268.2520   3.5838  1.01033179  1045
1 61995U 16053M   25030.67920457  .00000019  00000-0  00000-0 0  9995
2 61995   0.2518  88.1120 0053599 268.2631   3.5607  1.01033180  1051
1 61995U 16053M   25031.66895866  .00000036  00000-0  00000-0 0  9999
2 61995   0.2543  88.1176 0053619 268.3096   3.5089  1.01033136  1065
1 61995U 16053M   25031.66895911  .00000036  00000-0  00000-0 0  9990
2 61995   0.2543  88.1083 0053608 268.3028   3.5247  1.01033129  1052
1 61995U 16053M   25032.65871113  .00000052  00000-0  00000-0 0  9996
2 61995   0.2568  88.1336 0053632 268.3521   3.4511  1.01033158  1072
1 61995U 16053M   25033.64846409  .00000068  00000-0  00000-0 0  9993
2 61995   0.2593  88.1332 0053640 268.3860   3.4181  1.01033215  1089
1 61995U 16053M   25033.64846410  .00000068  00000-0  00000-0 0  9995
2 61995   0.2593  88.1465 0053646 268.3930   3.3981  1.01033215  1087
1 61995U 16053M   25034.63821547  .00000082  00000-0  00000-0 0  9995
2 61995   0.2617  88.1619 0053660 268.4320   3.3440  1.01033310  1092
1 61995U 16053M   25034.63821584  .00000082  00000-0  00000-0 0  9996
2 61995   0.2618  88.1446 0053649 268.4211   3.3718  1.01033305  1088
1 61995U 16053M   25035.62796428  .00000095  00000-0  00000-0 0  9998
2 61995   0.2642  88.1708 0053675 268.4745   3.2920  1.01033442  1106
1 61995U 16053M   25036.61770728  .00000104  00000-0  00000-0 0  9994
2 61995   0.2667  88.1673 0053679 268.5024   3.2657  1.01033629  1103
1 61995U 16053M   25036.61770791  .00000104  00000-0  00000-0 0  9994
2 61995   0.2667  88.1804 0053688 268.5183   3.2371  1.01033624  1114
1 61995U 16053M   25037.60744601  .00000112  00000-0  00000-0 0  9994
2 61995   0.2692  88.1766 0053692 268.5440   3.2124  1.01033859  1116
1 61995U 16053M   25038.59718062  .00000117  00000-0  00000-0 0  9990
2 61995   0.2717  88.1854 0053703 268.5816   3.1630  1.01034134  1121
1 61995U 16053M   25038.59718171  .00000117  00000-0  00000-0 0  9991
2 61995   0.2717  88.1934 0053706 268.5906   3.1462  1.01034127  1139
1 61995U 16053M   25039.58691421  .00000120  00000-0  00000-0 0  9993
2 61995   0.2742  88.2007 0053712 268.6206   3.1060  1.01034434  1146
1 61995U 16053M   25040.57664679  .00000122  00000-0  00000-0 0  9991
2 61995   0.2767  88.1947 0053717 268.6491   3.0811  1.01034762  1143
1 61995U 16053M   25040.57664832  .00000122  00000-0  00000-0 0  9992
2 61995   0.2767  88.2014 0053720 268.6510   3.0725  1.01034748  1154
1 61995U 16053M   25041.56638041  .00000123  00000-0  00000-0 0  9996
2 61995   0.2792  88.2008 0053737 268.6883   3.0346  1.01035117  1167
1 61995U 16053M   25041.56638042  .00000123  00000-0  00000-0 0  9997
2 61995   0.2792  88.1926 0053727 268.6849   3.0461  1.01035113  1159
1 61995U 16053M   25043.54584296  .00000123  00000-0  00000-0 0  9998
2 61995   0.2843  88.1825 0053753 268.7556   2.9867  1.01035947  1185
1 61995U 16053M   25043.54584408  .00000123  00000-0  00000-0 0  9993
2 61995   0.2844  88.1865 0053762 268.7539   2.9844  1.01035939  1187
1 61995U 16053M   25043.54584426  .00000123  00000-0  00000-0 0  9993
2 61995   0.2843  88.1831 0053749 268.7549   2.9868  1.01035931  1172
1 61995U 16053M   25044.53557395  .00000121  00000-0  00000-0 0  9996
2 61995   0.2869  88.1755 0053771 268.7850   2.9667  1.01036394  1198
1 61995U 16053M   25044.53557458  .00000121  00000-0  00000-0 0  9996
2 61995   0.2869  88.1732 0053765 268.7920   2.9620  1.01036387  1195
1 61995U 16053M   25045.52530093  .00000117  00000-0  00000-0 0  9997
2 61995   0.2895  88.1661 0053778 268.8257   2.9388  1.01036879  1202
1 61995U 16053M   25047.50474800  .00000104  00000-0  00000-0 0  9996
2 61995   0.2947  88.1599 0053801 268.8878   2.8904  1.01037848  1217
1 61995U 16053M   25047.50474862  .00000104  00000-0  00000-0 0  9994
2 61995   0.2947  88.1671 0053803 268.8764   2.8946  1.01037845  1228
1 61995U 16053M   25048.49446293  .00000094  00000-0  00000-0 0  9998
2 61995   0.2973  88.1584 0053808 268.9073   2.8759  1.01038348  1220
1 61995U 16053M   25049.48417310  .00000081  00000-0  00000-0 0  9992
2 61995   0.2999  88.1564 0053816 268.9364   2.8517  1.01038841  1240
1 61995U 16053M   25050.47387466  .00000065  00000-0  00000-0 0  9993
2 61995   0.3025  88.1491 0053829 268.9719   2.8257  1.01039341  1256
1 61995U 16053M   25050.47387499  .00000065  00000-0  00000-0 0  9999
2 61995   0.3025  88.1504 0053833 268.9698   2.8265  1.01039338  1257
